STARLINK-36293          
1 68515U 26068H   26112.97941730  .00379916  00000+0  18285-2 0  9999
2 68515  53.1568 287.3051 0001832  44.5246 315.5924 15.81068158  3678
STARLINK-36290          
1 68516U 26068J   26115.25002315  .00156139  00000+0  78371-3 0  9994
2 68516  53.1563 275.9166 0000880  95.2078 239.1087 15.80780480  5246
STARLINK-36298          
1 68517U 26068K   26115.25002315 -.02435885  00000+0 -22731-1 0  9994
2 68517  53.1591 275.9871 0000615  84.9813 213.8453 15.69902191  5247
STARLINK-36857          
1 68518U 26068L   26114.74655410  .00193069  00000+0  95673-3 0  9996
2 68518  53.1565 278.4149 0001226  19.6602 340.4468 15.80947309  3957
STARLINK-36326          
1 68519U 26068M   26114.81051634  .00262997  00000+0  12915-2 0  9997
2 68519  53.1547 278.1060 0001743 201.7550 158.3399 15.80945013  3967
STARLINK-37126          
1 68520U 26068N   26113.67107400  .00295485  00000+0  14409-2 0  9993
2 68520  53.1564 283.7948 0000874 108.1875 251.9243 15.81008306  3783
STARLINK-36347          
1 68521U 26068P   26114.80827372  .00147401  00000+0  73589-3 0  9996
2 68521  53.1572 278.0888 0001052  61.1277 298.9851 15.80925254  3961
STARLINK-36322          
1 68522U 26068Q   26114.74430138  .00184239  00000+0  91397-3 0  9997
2 68522  53.1565 278.3987 0000417 118.9861 241.1204 15.80949277  3953
STARLINK-37208          
1 68523U 26068R   26114.55314097  .00242975  00000+0  11945-2 0  9994
2 68523  53.1573 279.3403 0002035 325.6103  34.4788 15.80977313  3920
STARLINK-36302          
1 68524U 26068S   26114.67933463  .00371471  00000+0  17445-2 0  9997
2 68524  53.1574 278.7021 0001227  24.8806 335.2276 15.81622397  3947
STARLINK-36311          
1 68525U 26068T   26114.67808132  .00217784  00000+0  10745-2 0  9994
2 68525  53.1568 278.6943 0000586 358.4216   1.6804 15.80970511  3945
STARLINK-37178          
1 68526U 26068U   26115.25002315 -.02438648  00000+0 -18415-1 0  9998
2 68526  53.1590 275.8563 0000650  74.3351 288.4904 15.75408122  5298
STARLINK-37248          
1 68527U 26068V   26114.67733371  .00241079  00000+0  11865-2 0  9996
2 68527  53.1563 278.6902 0000930  58.0104 302.1009 15.80957779  3946
STARLINK-37241          
1 68528U 26068W   26115.25002315  .00028048  00000+0  14531-3 0  9992
2 68528  53.1567 275.8023 0000838  94.1116 295.7010 15.80852975  5296
STARLINK-37244          
1 68529U 26068X   26115.25002315 -.02466324  00000+0 -18768-1 0  9994
2 68529  53.1591 275.8306 0000648  79.9473 295.3864 15.75281244  5296
STARLINK-36285          
1 68530U 26068Y   26113.72679453  .00240132  00000+0  11807-2 0  9990
2 68530  53.1575 283.4276 0000821  61.6882 298.4224 15.80981032  3791
