[{"OBJECT_NAME":"STARLINK-36293","OBJECT_ID":"2026-068H","EPOCH":"2026-04-22T23:30:21.654720","MEAN_MOTION":15.81068158,"ECCENTRICITY":0.00018321,"INCLINATION":53.1568,"RA_OF_ASC_NODE":287.3051,"ARG_OF_PERICENTER":44.5246,"MEAN_ANOMALY":315.5924,"EPHEMERIS_TYPE":0,"CLASSIFICATION_TYPE":"U","NORAD_CAT_ID":68515,"ELEMENT_SET_NO":999,"REV_AT_EPOCH":367,"BSTAR":0.0018284858,"MEAN_MOTION_DOT":0.00379916,"MEAN_MOTION_DDOT":0},{"OBJECT_NAME":"STARLINK-36290","OBJECT_ID":"2026-068J","EPOCH":"2026-04-25T06:00:02.000160","MEAN_MOTION":15.8078048,"ECCENTRICITY":8.808e-5,"INCLINATION":53.1563,"RA_OF_ASC_NODE":275.9166,"ARG_OF_PERICENTER":95.2078,"MEAN_ANOMALY":239.1087,"EPHEMERIS_TYPE":0,"CLASSIFICATION_TYPE":"U","NORAD_CAT_ID":68516,"ELEMENT_SET_NO":999,"REV_AT_EPOCH":524,"BSTAR":0.00078371246,"MEAN_MOTION_DOT":0.00156139,"MEAN_MOTION_DDOT":0},{"OBJECT_NAME":"STARLINK-36298","OBJECT_ID":"2026-068K","EPOCH":"2026-04-25T06:00:02.000160","MEAN_MOTION":15.69902191,"ECCENTRICITY":6.153e-5,"INCLINATION":53.1591,"RA_OF_ASC_NODE":275.9871,"ARG_OF_PERICENTER":84.9813,"MEAN_ANOMALY":213.8453,"EPHEMERIS_TYPE":0,"CLASSIFICATION_TYPE":"U","NORAD_CAT_ID":68517,"ELEMENT_SET_NO":999,"REV_AT_EPOCH":524,"BSTAR":-0.022730597,"MEAN_MOTION_DOT":-0.02435885,"MEAN_MOTION_DDOT":0},{"OBJECT_NAME":"STARLINK-36857","OBJECT_ID":"2026-068L","EPOCH":"2026-04-24T17:55:02.274240","MEAN_MOTION":15.80947309,"ECCENTRICITY":0.00012269,"INCLINATION":53.1565,"RA_OF_ASC_NODE":278.4149,"ARG_OF_PERICENTER":19.6602,"MEAN_ANOMALY":340.4468,"EPHEMERIS_TYPE":0,"CLASSIFICATION_TYPE":"U","NORAD_CAT_ID":68518,"ELEMENT_SET_NO":999,"REV_AT_EPOCH":395,"BSTAR":0.00095672508,"MEAN_MOTION_DOT":0.00193069,"MEAN_MOTION_DDOT":0},{"OBJECT_NAME":"STARLINK-36326","OBJECT_ID":"2026-068M","EPOCH":"2026-04-24T19:27:08.611776","MEAN_MOTION":15.80945013,"ECCENTRICITY":0.00017432,"INCLINATION":53.1547,"RA_OF_ASC_NODE":278.106,"ARG_OF_PERICENTER":201.755,"MEAN_ANOMALY":158.3399,"EPHEMERIS_TYPE":0,"CLASSIFICATION_TYPE":"U","NORAD_CAT_ID":68519,"ELEMENT_SET_NO":999,"REV_AT_EPOCH":396,"BSTAR":0.0012915376,"MEAN_MOTION_DOT":0.00262997,"MEAN_MOTION_DDOT":0},{"OBJECT_NAME":"STARLINK-37126","OBJECT_ID":"2026-068N","EPOCH":"2026-04-23T16:06:20.793600","MEAN_MOTION":15.81008306,"ECCENTRICITY":8.742e-5,"INCLINATION":53.1564,"RA_OF_ASC_NODE":283.7948,"ARG_OF_PERICENTER":108.1875,"MEAN_ANOMALY":251.9243,"EPHEMERIS_TYPE":0,"CLASSIFICATION_TYPE":"U","NORAD_CAT_ID":68520,"ELEMENT_SET_NO":999,"REV_AT_EPOCH":378,"BSTAR":0.0014409388,"MEAN_MOTION_DOT":0.00295485,"MEAN_MOTION_DDOT":0},{"OBJECT_NAME":"STARLINK-36347","OBJECT_ID":"2026-068P","EPOCH":"2026-04-24T19:23:54.849408","MEAN_MOTION":15.80925254,"ECCENTRICITY":0.00010525,"INCLINATION":53.1572,"RA_OF_ASC_NODE":278.0888,"ARG_OF_PERICENTER":61.1277,"MEAN_ANOMALY":298.9851,"EPHEMERIS_TYPE":0,"CLASSIFICATION_TYPE":"U","NORAD_CAT_ID":68521,"ELEMENT_SET_NO":999,"REV_AT_EPOCH":396,"BSTAR":0.0007358903,"MEAN_MOTION_DOT":0.00147401,"MEAN_MOTION_DDOT":0},{"OBJECT_NAME":"STARLINK-36322","OBJECT_ID":"2026-068Q","EPOCH":"2026-04-24T17:51:47.639232","MEAN_MOTION":15.80949277,"ECCENTRICITY":4.173e-5,"INCLINATION":53.1565,"RA_OF_ASC_NODE":278.3987,"ARG_OF_PERICENTER":118.9861,"MEAN_ANOMALY":241.1204,"EPHEMERIS_TYPE":0,"CLASSIFICATION_TYPE":"U","NORAD_CAT_ID":68522,"ELEMENT_SET_NO":999,"REV_AT_EPOCH":395,"BSTAR":0.00091396852,"MEAN_MOTION_DOT":0.00184239,"MEAN_MOTION_DDOT":0},{"OBJECT_NAME":"STARLINK-37208","OBJECT_ID":"2026-068R","EPOCH":"2026-04-24T13:16:31.379808","MEAN_MOTION":15.80977313,"ECCENTRICITY":0.00020351,"INCLINATION":53.1573,"RA_OF_ASC_NODE":279.3403,"ARG_OF_PERICENTER":325.6103,"MEAN_ANOMALY":34.4788,"EPHEMERIS_TYPE":0,"CLASSIFICATION_TYPE":"U","NORAD_CAT_ID":68523,"ELEMENT_SET_NO":999,"REV_AT_EPOCH":392,"BSTAR":0.0011944767,"MEAN_MOTION_DOT":0.00242975,"MEAN_MOTION_DDOT":0},{"OBJECT_NAME":"STARLINK-36302","OBJECT_ID":"2026-068S","EPOCH":"2026-04-24T16:18:14.512032","MEAN_MOTION":15.81622397,"ECCENTRICITY":0.00012277,"INCLINATION":53.1574,"RA_OF_ASC_NODE":278.7021,"ARG_OF_PERICENTER":24.8806,"MEAN_ANOMALY":335.2276,"EPHEMERIS_TYPE":0,"CLASSIFICATION_TYPE":"U","NORAD_CAT_ID":68524,"ELEMENT_SET_NO":999,"REV_AT_EPOCH":394,"BSTAR":0.0017444649,"MEAN_MOTION_DOT":0.00371471,"MEAN_MOTION_DDOT":0},{"OBJECT_NAME":"STARLINK-36311","OBJECT_ID":"2026-068T","EPOCH":"2026-04-24T16:16:26.226048","MEAN_MOTION":15.80970511,"ECCENTRICITY":5.867e-5,"INCLINATION":53.1568,"RA_OF_ASC_NODE":278.6943,"ARG_OF_PERICENTER":358.4216,"MEAN_ANOMALY":1.6804,"EPHEMERIS_TYPE":0,"CLASSIFICATION_TYPE":"U","NORAD_CAT_ID":68525,"ELEMENT_SET_NO":999,"REV_AT_EPOCH":394,"BSTAR":0.0010744865,"MEAN_MOTION_DOT":0.00217784,"MEAN_MOTION_DDOT":0},{"OBJECT_NAME":"STARLINK-37178","OBJECT_ID":"2026-068U","EPOCH":"2026-04-25T06:00:02.000160","MEAN_MOTION":15.75408122,"ECCENTRICITY":6.506e-5,"INCLINATION":53.159,"RA_OF_ASC_NODE":275.8563,"ARG_OF_PERICENTER":74.3351,"MEAN_ANOMALY":288.4904,"EPHEMERIS_TYPE":0,"CLASSIFICATION_TYPE":"U","NORAD_CAT_ID":68526,"ELEMENT_SET_NO":999,"REV_AT_EPOCH":529,"BSTAR":-0.018415162,"MEAN_MOTION_DOT":-0.02438648,"MEAN_MOTION_DDOT":0},{"OBJECT_NAME":"STARLINK-37248","OBJECT_ID":"2026-068V","EPOCH":"2026-04-24T16:15:21.632544","MEAN_MOTION":15.80957779,"ECCENTRICITY":9.301e-5,"INCLINATION":53.1563,"RA_OF_ASC_NODE":278.6902,"ARG_OF_PERICENTER":58.0104,"MEAN_ANOMALY":302.1009,"EPHEMERIS_TYPE":0,"CLASSIFICATION_TYPE":"U","NORAD_CAT_ID":68527,"ELEMENT_SET_NO":999,"REV_AT_EPOCH":394,"BSTAR":0.0011865241,"MEAN_MOTION_DOT":0.00241079,"MEAN_MOTION_DDOT":0},{"OBJECT_NAME":"STARLINK-37241","OBJECT_ID":"2026-068W","EPOCH":"2026-04-25T06:00:02.000160","MEAN_MOTION":15.80852975,"ECCENTRICITY":8.381e-5,"INCLINATION":53.1567,"RA_OF_ASC_NODE":275.8023,"ARG_OF_PERICENTER":94.1116,"MEAN_ANOMALY":295.701,"EPHEMERIS_TYPE":0,"CLASSIFICATION_TYPE":"U","NORAD_CAT_ID":68528,"ELEMENT_SET_NO":999,"REV_AT_EPOCH":529,"BSTAR":0.00014531189,"MEAN_MOTION_DOT":0.00028048,"MEAN_MOTION_DDOT":0},{"OBJECT_NAME":"STARLINK-37244","OBJECT_ID":"2026-068X","EPOCH":"2026-04-25T06:00:02.000160","MEAN_MOTION":15.75281244,"ECCENTRICITY":6.489e-5,"INCLINATION":53.1591,"RA_OF_ASC_NODE":275.8306,"ARG_OF_PERICENTER":79.9473,"MEAN_ANOMALY":295.3864,"EPHEMERIS_TYPE":0,"CLASSIFICATION_TYPE":"U","NORAD_CAT_ID":68529,"ELEMENT_SET_NO":999,"REV_AT_EPOCH":529,"BSTAR":-0.018767522,"MEAN_MOTION_DOT":-0.02466324,"MEAN_MOTION_DDOT":0},{"OBJECT_NAME":"STARLINK-36285","OBJECT_ID":"2026-068Y","EPOCH":"2026-04-23T17:26:35.047392","MEAN_MOTION":15.80981032,"ECCENTRICITY":8.21e-5,"INCLINATION":53.1575,"RA_OF_ASC_NODE":283.4276,"ARG_OF_PERICENTER":61.6882,"MEAN_ANOMALY":298.4224,"EPHEMERIS_TYPE":0,"CLASSIFICATION_TYPE":"U","NORAD_CAT_ID":68530,"ELEMENT_SET_NO":999,"REV_AT_EPOCH":379,"BSTAR":0.0011807423,"MEAN_MOTION_DOT":0.00240132,"MEAN_MOTION_DDOT":0}]
